[{"OBJECT_NAME":"STARLINK-30497","OBJECT_ID":"2023-153W","EPOCH":"2026-03-08T17:33:50.388480","MEAN_MOTION":15.26752453,"ECCENTRICITY":0.00016398,"INCLINATION":43.0056,"RA_OF_ASC_NODE":72.1224,"ARG_OF_PERICENTER":251.9212,"MEAN_ANOMALY":108.1461,"EPHEMERIS_TYPE":0,"CLASSIFICATION_TYPE":"U","NORAD_CAT_ID":58011,"ELEMENT_SET_NO":999,"REV_AT_EPOCH":13475,"BSTAR":8.7316504e-5,"MEAN_MOTION_DOT":2.084e-5,"MEAN_MOTION_DDOT":0},{"OBJECT_NAME":"OBJECT D","OBJECT_ID":"2024-173D","EPOCH":"2026-03-09T23:30:29.956896","MEAN_MOTION":15.27005733,"ECCENTRICITY":0.00090093,"INCLINATION":97.3606,"RA_OF_ASC_NODE":149.3901,"ARG_OF_PERICENTER":241.6081,"MEAN_ANOMALY":118.425,"EPHEMERIS_TYPE":0,"CLASSIFICATION_TYPE":"U","NORAD_CAT_ID":61230,"ELEMENT_SET_NO":999,"REV_AT_EPOCH":8130,"BSTAR":0.00072064626,"MEAN_MOTION_DOT":0.00019078,"MEAN_MOTION_DDOT":0}]
